STARLINK-32469          
1 61721U 24196Q   26068.38946692  .00000582  00000+0  31791-4 0  9997
2 61721  53.1601 102.5175 0001054  81.5233 278.5887 15.30192485 77117
2025-313BC              
1 67298U 25313BC  26067.73159845  .00113849  00000+0  39787-2 0  9990
2 67298  97.3987 144.3551 0008508 331.4930  28.5844 15.29053282  7829
